*******************************************************************************
Ephemeris / WWW_USER Mon Mar 10 07:17:12 2025 Pasadena, USA      / Horizons    
*******************************************************************************
Target body name: (2018 PU7)                      {source: JPL#13}
Center body name: Earth (399)                     {source: DE441}
Center-site name: Mauna Kea
*******************************************************************************
Start time      : A.D. 2018-Nov-23 03:51:00.0000 UT      
Stop  time      : A.D. 2018-Nov-23 16:25:00.0000 UT      
Step-size       : 1 minutes
*******************************************************************************
Target pole/equ : undefined
Target radii    : undefined                                                    
Center geodetic : 204.5278, 19.8260847, 4.21024   {E-lon(deg),Lat(deg),Alt(km)}
Center cylindric: 204.5278, 6006.35451, 2151.0229 {E-lon(deg),Dxy(km),Dz(km)}
Center pole/equ : ITRF93                          {East-longitude positive}
Center radii    : 6378.137, 6378.137, 6356.752 km {Equator_a, b, pole_c}       
Target primary  : Sun
Vis. interferer : MOON (R_eq= 1737.400) km        {source: DE441}
Rel. light bend : Sun                             {source: DE441}
Rel. lght bnd GM: 1.3271E+11 km^3/s^2                                          
Small-body perts: Yes                             {source: SB441-N16}
Atmos refraction: NO (AIRLESS)
RA format       : HMS
Time format     : CAL 
Calendar mode   : Mixed Julian/Gregorian
RTS-only print  : NO       
EOP file        : eop.250307.p250603                                           
EOP coverage    : DATA-BASED 1962-JAN-20 TO 2025-MAR-07. PREDICTS-> 2025-JUN-02
Units conversion: 1 au= 149597870.700 km, c= 299792.458 km/s, 1 day= 86400.0 s 
Table cut-offs 1: Elevation (-90.0deg=NO ),Airmass (>38.000=NO), Daylight (YES)
Table cut-offs 2: Solar elongation (  0.0,180.0=NO ),Local Hour Angle( 0.0=NO )
Table cut-offs 3: RA/DEC angular rate (     0.0=NO )                           
*******************************************************************************
Initial IAU76/J2000 heliocentric ecliptic osculating elements (au, days, deg.):
  EPOCH=  2458344.5 ! 2018-Aug-14.00 (TDB)         Residual RMS= .35253        
   EC= .5418411610879256   QR= .9908981152950816   TP= 2458306.0483912583      
   OM= 307.3200871504195   W=  329.2166965634538   IN= 6.906215163822786       
  Equivalent ICRF heliocentric cartesian coordinates (au, au/d):
   X= 8.533350742151261E-01  Y=-6.504796009993946E-01  Z=-2.480927258064065E-01
  VX= 1.615085148536055E-02 VY= 9.661045842052620E-03 VZ= 6.810490395822813E-03
Asteroid physical parameters (km, seconds, rotational period in hours):        
   GM= n.a.                RAD= n.a.               ROTPER= n.a.                
   H= 23.4                 G= .150                 B-V= n.a.                   
                           ALBEDO= n.a.            STYP= n.a.                  
*******************************************************************************
 Date__(UT)__HR:MN     R.A._________(ICRF)_________DEC
******************************************************
$$SOE
 2018-Nov-23 05:54  m  23 19 32.766940 +06 46 28.43304
 2018-Nov-23 05:55  m  23 19 32.822922 +06 46 28.57842
 2018-Nov-23 05:56  m  23 19 32.878905 +06 46 28.72379
 2018-Nov-23 05:57  m  23 19 32.934890 +06 46 28.86915
 2018-Nov-23 05:58  m  23 19 32.990875 +06 46 29.01449
 2018-Nov-23 05:59  m  23 19 33.046862 +06 46 29.15982
 2018-Nov-23 06:00  m  23 19 33.102850 +06 46 29.30514
 2018-Nov-23 06:01  m  23 19 33.158838 +06 46 29.45045
 2018-Nov-23 06:02  m  23 19 33.214829 +06 46 29.59574
 2018-Nov-23 06:03  m  23 19 33.270820 +06 46 29.74102
 2018-Nov-23 06:04  m  23 19 33.326813 +06 46 29.88629
 2018-Nov-23 06:05  m  23 19 33.382807 +06 46 30.03154
 2018-Nov-23 06:06  m  23 19 33.438802 +06 46 30.17679
 2018-Nov-23 06:07  m  23 19 33.494799 +06 46 30.32202
 2018-Nov-23 06:08  m  23 19 33.550797 +06 46 30.46724
 2018-Nov-23 06:09  m  23 19 33.606797 +06 46 30.61244
 2018-Nov-23 06:10  m  23 19 33.662799 +06 46 30.75764
 2018-Nov-23 06:11  m  23 19 33.718802 +06 46 30.90282
 2018-Nov-23 06:12  m  23 19 33.774806 +06 46 31.04799
 2018-Nov-23 06:13  m  23 19 33.830813 +06 46 31.19314
 2018-Nov-23 06:14  m  23 19 33.886820 +06 46 31.33829
 2018-Nov-23 06:15  m  23 19 33.942830 +06 46 31.48342
 2018-Nov-23 06:16  m  23 19 33.998842 +06 46 31.62854
 2018-Nov-23 06:17  m  23 19 34.054855 +06 46 31.77364
 2018-Nov-23 06:18  m  23 19 34.110870 +06 46 31.91874
 2018-Nov-23 06:19  m  23 19 34.166887 +06 46 32.06382
 2018-Nov-23 06:20  m  23 19 34.222906 +06 46 32.20889
 2018-Nov-23 06:21  m  23 19 34.278927 +06 46 32.35395
 2018-Nov-23 06:22  m  23 19 34.334949 +06 46 32.49899
 2018-Nov-23 06:23  m  23 19 34.390974 +06 46 32.64403
 2018-Nov-23 06:24  m  23 19 34.447001 +06 46 32.78905
 2018-Nov-23 06:25  m  23 19 34.503030 +06 46 32.93406
 2018-Nov-23 06:26  m  23 19 34.559062 +06 46 33.07905
 2018-Nov-23 06:27  m  23 19 34.615095 +06 46 33.22404
 2018-Nov-23 06:28  m  23 19 34.671131 +06 46 33.36901
 2018-Nov-23 06:29  m  23 19 34.727169 +06 46 33.51397
 2018-Nov-23 06:30  m  23 19 34.783209 +06 46 33.65892
 2018-Nov-23 06:31  m  23 19 34.839251 +06 46 33.80385
 2018-Nov-23 06:32  m  23 19 34.895296 +06 46 33.94878
 2018-Nov-23 06:33  m  23 19 34.951343 +06 46 34.09369
 2018-Nov-23 06:34  m  23 19 35.007393 +06 46 34.23859
 2018-Nov-23 06:35  m  23 19 35.063445 +06 46 34.38347
 2018-Nov-23 06:36  m  23 19 35.119500 +06 46 34.52835
 2018-Nov-23 06:37  m  23 19 35.175558 +06 46 34.67321
 2018-Nov-23 06:38  m  23 19 35.231618 +06 46 34.81806
 2018-Nov-23 06:39  m  23 19 35.287680 +06 46 34.96290
 2018-Nov-23 06:40  m  23 19 35.343745 +06 46 35.10773
 2018-Nov-23 06:41  m  23 19 35.399813 +06 46 35.25254
 2018-Nov-23 06:42  m  23 19 35.455884 +06 46 35.39735
 2018-Nov-23 06:43  m  23 19 35.511957 +06 46 35.54214
 2018-Nov-23 06:44  m  23 19 35.568034 +06 46 35.68692
 2018-Nov-23 06:45  m  23 19 35.624113 +06 46 35.83168
 2018-Nov-23 06:46  m  23 19 35.680195 +06 46 35.97644
 2018-Nov-23 06:47  m  23 19 35.736280 +06 46 36.12118
 2018-Nov-23 06:48  m  23 19 35.792368 +06 46 36.26592
 2018-Nov-23 06:49  m  23 19 35.848459 +06 46 36.41064
 2018-Nov-23 06:50  m  23 19 35.904553 +06 46 36.55534
 2018-Nov-23 06:51  m  23 19 35.960650 +06 46 36.70004
 2018-Nov-23 06:52  m  23 19 36.016750 +06 46 36.84473
 2018-Nov-23 06:53  m  23 19 36.072854 +06 46 36.98940
 2018-Nov-23 06:54  m  23 19 36.128960 +06 46 37.13406
 2018-Nov-23 06:55  m  23 19 36.185070 +06 46 37.27871
 2018-Nov-23 06:56  m  23 19 36.241183 +06 46 37.42335
 2018-Nov-23 06:57  m  23 19 36.297299 +06 46 37.56797
 2018-Nov-23 06:58  m  23 19 36.353419 +06 46 37.71259
 2018-Nov-23 06:59  m  23 19 36.409542 +06 46 37.85719
 2018-Nov-23 07:00  m  23 19 36.465668 +06 46 38.00178
 2018-Nov-23 07:01  m  23 19 36.521798 +06 46 38.14637
 2018-Nov-23 07:02  m  23 19 36.577931 +06 46 38.29093
 2018-Nov-23 07:03  m  23 19 36.634068 +06 46 38.43549
 2018-Nov-23 07:04  m  23 19 36.690209 +06 46 38.58004
 2018-Nov-23 07:05  m  23 19 36.746353 +06 46 38.72457
 2018-Nov-23 07:06  m  23 19 36.802500 +06 46 38.86910
 2018-Nov-23 07:07  m  23 19 36.858652 +06 46 39.01361
 2018-Nov-23 07:08  m  23 19 36.914806 +06 46 39.15811
 2018-Nov-23 07:09  m  23 19 36.970965 +06 46 39.30260
 2018-Nov-23 07:10  m  23 19 37.027128 +06 46 39.44707
 2018-Nov-23 07:11  m  23 19 37.083294 +06 46 39.59154
 2018-Nov-23 07:12  m  23 19 37.139464 +06 46 39.73600
 2018-Nov-23 07:13  m  23 19 37.195638 +06 46 39.88044
 2018-Nov-23 07:14  m  23 19 37.251816 +06 46 40.02487
 2018-Nov-23 07:15  m  23 19 37.307997 +06 46 40.16930
 2018-Nov-23 07:16  m  23 19 37.364183 +06 46 40.31371
 2018-Nov-23 07:17  m  23 19 37.420373 +06 46 40.45811
 2018-Nov-23 07:18  m  23 19 37.476567 +06 46 40.60250
 2018-Nov-23 07:19  m  23 19 37.532765 +06 46 40.74687
 2018-Nov-23 07:20  m  23 19 37.588967 +06 46 40.89124
 2018-Nov-23 07:21  m  23 19 37.645173 +06 46 41.03560
 2018-Nov-23 07:22  m  23 19 37.701383 +06 46 41.17994
 2018-Nov-23 07:23  m  23 19 37.757597 +06 46 41.32428
 2018-Nov-23 07:24  m  23 19 37.813816 +06 46 41.46860
 2018-Nov-23 07:25  m  23 19 37.870039 +06 46 41.61291
 2018-Nov-23 07:26  m  23 19 37.926267 +06 46 41.75721
 2018-Nov-23 07:27  m  23 19 37.982498 +06 46 41.90150
 2018-Nov-23 07:28  m  23 19 38.038734 +06 46 42.04578
 2018-Nov-23 07:29  m  23 19 38.094975 +06 46 42.19005
 2018-Nov-23 07:30  m  23 19 38.151220 +06 46 42.33431
 2018-Nov-23 07:31  m  23 19 38.207469 +06 46 42.47856
 2018-Nov-23 07:32  m  23 19 38.263723 +06 46 42.62280
 2018-Nov-23 07:33  m  23 19 38.319982 +06 46 42.76703
 2018-Nov-23 07:34  m  23 19 38.376245 +06 46 42.91124
 2018-Nov-23 07:35  m  23 19 38.432513 +06 46 43.05545
 2018-Nov-23 07:36  m  23 19 38.488785 +06 46 43.19964
 2018-Nov-23 07:37  m  23 19 38.545062 +06 46 43.34383
 2018-Nov-23 07:38  m  23 19 38.601344 +06 46 43.48800
 2018-Nov-23 07:39  m  23 19 38.657631 +06 46 43.63217
 2018-Nov-23 07:40  m  23 19 38.713922 +06 46 43.77632
 2018-Nov-23 07:41  m  23 19 38.770218 +06 46 43.92047
 2018-Nov-23 07:42  m  23 19 38.826519 +06 46 44.06460
 2018-Nov-23 07:43  m  23 19 38.882825 +06 46 44.20872
 2018-Nov-23 07:44  m  23 19 38.939136 +06 46 44.35284
 2018-Nov-23 07:45  m  23 19 38.995452 +06 46 44.49694
 2018-Nov-23 07:46  m  23 19 39.051773 +06 46 44.64103
 2018-Nov-23 07:47  m  23 19 39.108098 +06 46 44.78512
 2018-Nov-23 07:48  m  23 19 39.164429 +06 46 44.92919
 2018-Nov-23 07:49  m  23 19 39.220765 +06 46 45.07325
 2018-Nov-23 07:50  m  23 19 39.277106 +06 46 45.21730
 2018-Nov-23 07:51  m  23 19 39.333452 +06 46 45.36135
 2018-Nov-23 07:52  m  23 19 39.389804 +06 46 45.50538
 2018-Nov-23 07:53  m  23 19 39.446160 +06 46 45.64940
 2018-Nov-23 07:54  m  23 19 39.502522 +06 46 45.79342
 2018-Nov-23 07:55  m  23 19 39.558889 +06 46 45.93742
 2018-Nov-23 07:56  m  23 19 39.615261 +06 46 46.08142
